{"type": "FeatureCollection", "features": [ {"type": "Feature", "properties": {"norad_id": 66911, "name": "1998-067XX", "group": "stations", "lat": 37.92776678775292, "lon": -164.44854528389618, "alt_km": 410.6656247926967, "timestamp": "2025-12-09T16:56:35.376146+00:00", "meta": {"OBJECT_NAME": "1998-067XX", "OBJECT_ID": "1998-067XX", "EPOCH": "2025-12-09T02:48:25.039872", "MEAN_MOTION": 15.51276485, "ECCENTRICITY": 0.0005703, "INCLINATION": 51.6296, "RA_OF_ASC_NODE": 160.3494, "ARG_OF_PERICENTER": 191.2268, "MEAN_ANOMALY": 168.8595, "EPHEMERIS_TYPE": 0, "CLASSIFICATION_TYPE": "U", "NORAD_CAT_ID": 66911, "ELEMENT_SET_NO": 999, "REV_AT_EPOCH": 104, "BSTAR": 0.0014246, "MEAN_MOTION_DOT": 0.00085582, "MEAN_MOTION_DDOT": 0}, "tle": {"line1": "1 66911U 98067XX  25343.11695648  .00085582  00000+0  14246-2 0  9996", "line2": "2 66911  51.6296 160.3494 0005703 191.2268 168.8595 15.51276485  1046"}}, "geometry": {"type": "Point", "coordinates": [-164.44854528389618, 37.92776678775292]}}, {"type": "Feature", "properties": {"norad_id": 66912, "name": "1998-067XY", "group": "stations", "lat": 29.238330509794945, "lon": -176.22308257933133, "alt_km": 414.35960062492813, "timestamp": "2025-12-09T16:56:35.376156+00:00", "meta": {"OBJECT_NAME": "1998-067XY", "OBJECT_ID": "1998-067XY", "EPOCH": "2025-12-08T19:07:24.168000", "MEAN_MOTION": 15.50590071, "ECCENTRICITY": 0.0005044, "INCLINATION": 51.6301, "RA_OF_ASC_NODE": 161.961, "ARG_OF_PERICENTER": 202.8278, "MEAN_ANOMALY": 157.2488, "EPHEMERIS_TYPE": 0, "CLASSIFICATION_TYPE": "U", "NORAD_CAT_ID": 66912, "ELEMENT_SET_NO": 999, "REV_AT_EPOCH": 99, "BSTAR": 0.00096272, "MEAN_MOTION_DOT": 0.00056065, "MEAN_MOTION_DDOT": 0}, "tle": {"line1": "1 66912U 98067XY  25342.79680750  .00056065  00000+0  96272-3 0  9992", "line2": "2 66912  51.6301 161.9610 0005044 202.8278 157.2488 15.50590071   994"}}, "geometry": {"type": "Point", "coordinates": [-176.22308257933133, 29.238330509794945]}}]}